ATLAS CENTAUR 2         
1 00694U 63047A   26066.77998264  .00001956  00000+0  22962-3 0  9995
2 00694  30.3512 206.3150 0547743  63.4564 302.1125 14.12060838131350
THOR AGENA D R/B        
1 00733U 64002A   26066.77782499  .00000311  00000+0  12819-3 0  9996
2 00733  99.1227  80.0111 0031920 263.8390  95.9156 14.34018867238024
SL-3 R/B                
1 00877U 64053B   26067.11791844  .00000458  00000+0  11260-3 0  9995
2 00877  65.0789 335.8452 0079712 292.7238  66.5451 14.61367057266560
SL-8 R/B                
1 02802U 67045B   26067.12178507  .00000614  00000+0  17726-3 0  9992
2 02802  74.0141 351.0169 0064140 357.6583   2.4264 14.45621456 88796
SL-8 R/B                
1 03230U 68040B   26067.11246007  .00005001  00000+0  36978-3 0  9999
2 03230  74.0324 316.9174 0023876 141.4207 218.8694 15.03247334 89777
OAO 2                   
1 03597U 68110A   26066.92041369  .00000400  00000+0  11286-3 0  9998
2 03597  34.9929 275.1024 0005663 191.2690 168.7875 14.47307064 18840
ISIS 1                  
1 03669U 69009A   26066.77278466  .00000218  00000+0  13841-3 0  9995
2 03669  88.4544 155.5177 1707801  93.0283 286.6563 11.30413551348318
SERT 2                  
1 04327U 70009A   26067.06838544  .00000020  00000+0  83757-4 0  9996
2 04327  99.2756  10.2507 0004988 159.5365 212.1047 13.58729636779677
SL-3 R/B                
1 05118U 71028B   26067.11787921  .00051518  00000+0  60895-3 0  9990
2 05118  81.2354  53.9703 0013483 292.5217  67.4608 15.60971859988427
ASTEX 1                 
1 05560U 71089A   26067.16692760  .00000666  00000+0  16917-3 0  9993
2 05560  92.7124 151.2674 0017864  90.3815 269.9438 14.50768200862089
SL-8 R/B                
1 05730U 71119B   26066.70921629  .00016924  00000+0  87915-3 0  9994
2 05730  73.8876 179.4201 0549172 146.4742 217.2483 14.37799133655208
OAO 3 (COPERNICUS)      
1 06153U 72065A   26067.04502786  .00000535  00000+0  11419-3 0  9999
2 06153  35.0061 306.6868 0006282 153.2580   6.0269 14.59996877845950
