CCSDS_OMM_VERS = 2.0
CREATION_DATE  = 
ORIGINATOR     = 

OBJECT_NAME    = ATLAS CENTAUR 2
OBJECT_ID      = 1963-047A
CENTER_NAME    = EARTH
REF_FRAME      = TEME
TIME_SYSTEM    = UTC
MEAN_ELEMENT_THEORY = SGP/SGP4

EPOCH          = 2026-03-07T18:43:10.500096
MEAN_MOTION    = 14.12060838
ECCENTRICITY   = .05477436
INCLINATION    = 30.3512
RA_OF_ASC_NODE = 206.3150
ARG_OF_PERICENTER = 63.4564
MEAN_ANOMALY   = 302.1125

EPHEMERIS_TYPE = 0
CLASSIFICATION_TYPE = U
NORAD_CAT_ID   = 694
ELEMENT_SET_NO = 999
REV_AT_EPOCH   = 13135
BSTAR          = .22962246E-3
MEAN_MOTION_DOT = .1956E-4
MEAN_MOTION_DDOT = 0

CCSDS_OMM_VERS = 2.0
CREATION_DATE  = 
ORIGINATOR     = 

OBJECT_NAME    = THOR AGENA D R/B
OBJECT_ID      = 1964-002A
CENTER_NAME    = EARTH
REF_FRAME      = TEME
TIME_SYSTEM    = UTC
MEAN_ELEMENT_THEORY = SGP/SGP4

EPOCH          = 2026-03-07T18:40:04.079136
MEAN_MOTION    = 14.34018867
ECCENTRICITY   = .00319207
INCLINATION    = 99.1227
RA_OF_ASC_NODE = 80.0111
ARG_OF_PERICENTER = 263.8390
MEAN_ANOMALY   = 95.9156

EPHEMERIS_TYPE = 0
CLASSIFICATION_TYPE = U
NORAD_CAT_ID   = 733
ELEMENT_SET_NO = 999
REV_AT_EPOCH   = 23802
BSTAR          = .12818869E-3
MEAN_MOTION_DOT = .311E-5
MEAN_MOTION_DDOT = 0

CCSDS_OMM_VERS = 2.0
CREATION_DATE  = 
ORIGINATOR     = 

OBJECT_NAME    = SL-3 R/B
OBJECT_ID      = 1964-053B
CENTER_NAME    = EARTH
REF_FRAME      = TEME
TIME_SYSTEM    = UTC
MEAN_ELEMENT_THEORY = SGP/SGP4

EPOCH          = 2026-03-08T02:49:48.153216
MEAN_MOTION    = 14.61367057
ECCENTRICITY   = .0079712
INCLINATION    = 65.0789
RA_OF_ASC_NODE = 335.8452
ARG_OF_PERICENTER = 292.7238
MEAN_ANOMALY   = 66.5451

EPHEMERIS_TYPE = 0
CLASSIFICATION_TYPE = U
NORAD_CAT_ID   = 877
ELEMENT_SET_NO = 999
REV_AT_EPOCH   = 26656
BSTAR          = .1126E-3
MEAN_MOTION_DOT = .458E-5
MEAN_MOTION_DDOT = 0

CCSDS_OMM_VERS = 2.0
CREATION_DATE  = 
ORIGINATOR     = 

OBJECT_NAME    = SL-8 R/B
OBJECT_ID      = 1967-045B
CENTER_NAME    = EARTH
REF_FRAME      = TEME
TIME_SYSTEM    = UTC
MEAN_ELEMENT_THEORY = SGP/SGP4

EPOCH          = 2026-03-08T02:55:22.230048
MEAN_MOTION    = 14.45621456
ECCENTRICITY   = .006414
INCLINATION    = 74.0141
RA_OF_ASC_NODE = 351.0169
ARG_OF_PERICENTER = 357.6583
MEAN_ANOMALY   = 2.4264

EPHEMERIS_TYPE = 0
CLASSIFICATION_TYPE = U
NORAD_CAT_ID   = 2802
ELEMENT_SET_NO = 999
REV_AT_EPOCH   = 8879
BSTAR          = .17726E-3
MEAN_MOTION_DOT = .614E-5
MEAN_MOTION_DDOT = 0

CCSDS_OMM_VERS = 2.0
CREATION_DATE  = 
ORIGINATOR     = 

OBJECT_NAME    = SL-8 R/B
OBJECT_ID      = 1968-040B
CENTER_NAME    = EARTH
REF_FRAME      = TEME
TIME_SYSTEM    = UTC
MEAN_ELEMENT_THEORY = SGP/SGP4

EPOCH          = 2026-03-08T02:41:56.550048
MEAN_MOTION    = 15.03247334
ECCENTRICITY   = .0023876
INCLINATION    = 74.0324
RA_OF_ASC_NODE = 316.9174
ARG_OF_PERICENTER = 141.4207
MEAN_ANOMALY   = 218.8694

EPHEMERIS_TYPE = 0
CLASSIFICATION_TYPE = U
NORAD_CAT_ID   = 3230
ELEMENT_SET_NO = 999
REV_AT_EPOCH   = 8977
BSTAR          = .36978E-3
MEAN_MOTION_DOT = .5001E-4
MEAN_MOTION_DDOT = 0

CCSDS_OMM_VERS = 2.0
CREATION_DATE  = 
ORIGINATOR     = 

OBJECT_NAME    = OAO 2
OBJECT_ID      = 1968-110A
CENTER_NAME    = EARTH
REF_FRAME      = TEME
TIME_SYSTEM    = UTC
MEAN_ELEMENT_THEORY = SGP/SGP4

EPOCH          = 2026-03-07T22:05:23.742816
MEAN_MOTION    = 14.47307064
ECCENTRICITY   = .00056639
INCLINATION    = 34.9929
RA_OF_ASC_NODE = 275.1024
ARG_OF_PERICENTER = 191.2690
MEAN_ANOMALY   = 168.7875

EPHEMERIS_TYPE = 0
CLASSIFICATION_TYPE = U
NORAD_CAT_ID   = 3597
ELEMENT_SET_NO = 999
REV_AT_EPOCH   = 1884
BSTAR          = .11285529E-3
MEAN_MOTION_DOT = .4E-5
MEAN_MOTION_DDOT = 0

CCSDS_OMM_VERS = 2.0
CREATION_DATE  = 
ORIGINATOR     = 

OBJECT_NAME    = ISIS 1
OBJECT_ID      = 1969-009A
CENTER_NAME    = EARTH
REF_FRAME      = TEME
TIME_SYSTEM    = UTC
MEAN_ELEMENT_THEORY = SGP/SGP4

EPOCH          = 2026-03-07T18:32:48.594624
MEAN_MOTION    = 11.30413551
ECCENTRICITY   = .17078012
INCLINATION    = 88.4544
RA_OF_ASC_NODE = 155.5177
ARG_OF_PERICENTER = 93.0283
MEAN_ANOMALY   = 286.6563

EPHEMERIS_TYPE = 0
CLASSIFICATION_TYPE = U
NORAD_CAT_ID   = 3669
ELEMENT_SET_NO = 999
REV_AT_EPOCH   = 34831
BSTAR          = .13841342E-3
MEAN_MOTION_DOT = .218E-5
MEAN_MOTION_DDOT = 0

CCSDS_OMM_VERS = 2.0
CREATION_DATE  = 
ORIGINATOR     = 

OBJECT_NAME    = SERT 2
OBJECT_ID      = 1970-009A
CENTER_NAME    = EARTH
REF_FRAME      = TEME
TIME_SYSTEM    = UTC
MEAN_ELEMENT_THEORY = SGP/SGP4

EPOCH          = 2026-03-08T01:38:28.502016
MEAN_MOTION    = 13.58729636
ECCENTRICITY   = .0004988
INCLINATION    = 99.2756
RA_OF_ASC_NODE = 10.2507
ARG_OF_PERICENTER = 159.5365
MEAN_ANOMALY   = 212.1047

EPHEMERIS_TYPE = 0
CLASSIFICATION_TYPE = U
NORAD_CAT_ID   = 4327
ELEMENT_SET_NO = 999
REV_AT_EPOCH   = 77967
BSTAR          = .83757E-4
MEAN_MOTION_DOT = .2E-6
MEAN_MOTION_DDOT = 0

CCSDS_OMM_VERS = 2.0
CREATION_DATE  = 
ORIGINATOR     = 

OBJECT_NAME    = SL-3 R/B
OBJECT_ID      = 1971-028B
CENTER_NAME    = EARTH
REF_FRAME      = TEME
TIME_SYSTEM    = UTC
MEAN_ELEMENT_THEORY = SGP/SGP4

EPOCH          = 2026-03-08T02:49:44.763744
MEAN_MOTION    = 15.60971859
ECCENTRICITY   = .0013483
INCLINATION    = 81.2354
RA_OF_ASC_NODE = 53.9703
ARG_OF_PERICENTER = 292.5217
MEAN_ANOMALY   = 67.4608

EPHEMERIS_TYPE = 0
CLASSIFICATION_TYPE = U
NORAD_CAT_ID   = 5118
ELEMENT_SET_NO = 999
REV_AT_EPOCH   = 98842
BSTAR          = .60895E-3
MEAN_MOTION_DOT = .51518E-3
MEAN_MOTION_DDOT = 0

CCSDS_OMM_VERS = 2.0
CREATION_DATE  = 
ORIGINATOR     = 

OBJECT_NAME    = ASTEX 1
OBJECT_ID      = 1971-089A
CENTER_NAME    = EARTH
REF_FRAME      = TEME
TIME_SYSTEM    = UTC
MEAN_ELEMENT_THEORY = SGP/SGP4

EPOCH          = 2026-03-08T04:00:22.544640
MEAN_MOTION    = 14.50768200
ECCENTRICITY   = .0017864
INCLINATION    = 92.7124
RA_OF_ASC_NODE = 151.2674
ARG_OF_PERICENTER = 90.3815
MEAN_ANOMALY   = 269.9438

EPHEMERIS_TYPE = 0
CLASSIFICATION_TYPE = U
NORAD_CAT_ID   = 5560
ELEMENT_SET_NO = 999
REV_AT_EPOCH   = 86208
BSTAR          = .16917E-3
MEAN_MOTION_DOT = .666E-5
MEAN_MOTION_DDOT = 0

CCSDS_OMM_VERS = 2.0
CREATION_DATE  = 
ORIGINATOR     = 

OBJECT_NAME    = SL-8 R/B
OBJECT_ID      = 1971-119B
CENTER_NAME    = EARTH
REF_FRAME      = TEME
TIME_SYSTEM    = UTC
MEAN_ELEMENT_THEORY = SGP/SGP4

EPOCH          = 2026-03-07T17:01:16.287456
MEAN_MOTION    = 14.37799133
ECCENTRICITY   = .05491722
INCLINATION    = 73.8876
RA_OF_ASC_NODE = 179.4201
ARG_OF_PERICENTER = 146.4742
MEAN_ANOMALY   = 217.2483

EPHEMERIS_TYPE = 0
CLASSIFICATION_TYPE = U
NORAD_CAT_ID   = 5730
ELEMENT_SET_NO = 999
REV_AT_EPOCH   = 65520
BSTAR          = .87915427E-3
MEAN_MOTION_DOT = .16924E-3
MEAN_MOTION_DDOT = 0

CCSDS_OMM_VERS = 2.0
CREATION_DATE  = 
ORIGINATOR     = 

OBJECT_NAME    = OAO 3 (COPERNICUS)
OBJECT_ID      = 1972-065A
CENTER_NAME    = EARTH
REF_FRAME      = TEME
TIME_SYSTEM    = UTC
MEAN_ELEMENT_THEORY = SGP/SGP4

EPOCH          = 2026-03-08T01:04:50.407104
MEAN_MOTION    = 14.59996877
ECCENTRICITY   = .0006282
INCLINATION    = 35.0061
RA_OF_ASC_NODE = 306.6868
ARG_OF_PERICENTER = 153.2580
MEAN_ANOMALY   = 6.0269

EPHEMERIS_TYPE = 0
CLASSIFICATION_TYPE = U
NORAD_CAT_ID   = 6153
ELEMENT_SET_NO = 999
REV_AT_EPOCH   = 84595
BSTAR          = .11419E-3
MEAN_MOTION_DOT = .535E-5
MEAN_MOTION_DDOT = 0

